QIANFAN-25              
1 61558U 24185G   25267.93116037  .00000592  00000+0  35404-3 0  9991
2 61558  88.9740  87.1110 0008821 177.5251 182.5977 14.05797081 58439
QIANFAN-26              
1 61559U 24185H   25267.95055966  .00000387  00000+0  37414-3 0  9992
2 61559  88.9745  88.2580 0003889 240.7482 119.3296 13.77745100 57823
QIANFAN-27              
1 61560U 24185J   25267.94569299  .00000925  00000+0  37293-3 0  9995
2 61560  88.9740  86.1847 0008035 172.3107 187.8211 14.27175586 58925
QIANFAN-28              
1 61561U 24185K   25267.96386438  .00001551  00000+0  62247-3 0  9993
2 61561  88.9756  86.1798 0007116 171.1891 188.9429 14.27775233 58933
QIANFAN-29              
1 61562U 24185L   25267.93514860  .00000241  00000+0  35478-3 0  9994
2 61562  88.9721  89.4575 0008322 281.9195  78.1023 13.50969613 57157
QIANFAN-30              
1 61563U 24185M   25267.99860973  .00000236  00000+0  35331-3 0  9992
2 61563  88.9740  88.9460 0005735 262.2479  97.8020 13.49947415 57449
QIANFAN-31              
1 61564U 24185N   25267.98698912  .00000247  00000+0  32520-3 0  9993
2 61564  88.9726  88.8740 0005328 258.2226 101.8331 13.57919547 57475
QIANFAN-32              
1 61565U 24185P   25267.93660495  .00000230  00000+0  33968-3 0  9993
2 61565  88.9783  89.0628 0007649 294.9597  65.0759 13.50699314 57401
